NORAD_CAT_ID,OBJECT_NAME,OBJECT_TYPE,EPOCH,MEAN_MOTION,ECCENTRICITY,INCLINATION,RA_OF_ASC_NODE,ARG_OF_PERICENTER,MEAN_ANOMALY,BSTAR,MEAN_MOTION_DOT,MEAN_MOTION_DDOT,TLE_LINE0,TLE_LINE1,TLE_LINE2,SEMIMAJOR_AXIS,PERIOD,APOGEE,PERIGEE,DECAYED
50803.0,STARLINK-3321,PAYLOAD,2024-05-08 04:08:57,15.08837116,0.0001345,53.2148,299.1886,88.2734,271.8413,0.00013727,1.897e-05,0.0,0 STARLINK-3321,1 50803U 22001A   24129.17288619  .00001897  00000-0  13727-3 0  9999,2 50803  53.2148 299.1886 0001345  88.2734 271.8413 15.08837116129186,6917.889,95.438,540.685,538.824,0.0
50803.0,STARLINK-3321,PAYLOAD,2024-05-08 18:27:25,15.08846474,0.0001234,53.2162,296.5143,94.8707,265.2426,0.00053366,8.217e-05,0.0,0 STARLINK-3321,1 50803U 22001A   24129.76904613  .00008217  00000-0  53366-3 0  9999,2 50803  53.2162 296.5143 0001234  94.8707 265.2426 15.08846474130549,6917.861,95.437,540.579,538.872,0.0
50803.0,STARLINK-3321,PAYLOAD,2024-05-08 21:38:11,15.08854592,0.0001269,53.2152,295.9172,84.4639,275.6498,0.00074435,0.00011583,0.0,0 STARLINK-3321,1 50803U 22001A   24129.90152400  .00011583  00000-0  74435-3 0  9994,2 50803  53.2152 295.9172 0001269  84.4639 275.6498 15.08854592129294,6917.836,95.437,540.579,538.823,0.0
50803.0,STARLINK-3321,PAYLOAD,2024-05-09 15:07:26,15.08847089,0.0001122,53.2136,292.6443,89.073,271.0391,0.00029085,4.345e-05,0.0,0 STARLINK-3321,1 50803U 22001A   24130.63016310  .00004345  00000-0  29085-3 0  9994,2 50803  53.2136 292.6443 0001122  89.0730 271.0391 15.08847089129400,6917.859,95.437,540.5,538.948,0.0
50803.0,STARLINK-3321,PAYLOAD,2024-05-09 18:18:12,15.0884978,0.0001261,53.2157,292.0487,80.4316,279.6818,0.00030533,4.576e-05,0.0,0 STARLINK-3321,1 50803U 22001A   24130.76264282  .00004576  00000-0  30533-3 0  9997,2 50803  53.2157 292.0487 0001261  80.4316 279.6818 15.08849780130695,6917.85,95.437,540.588,538.843,0.0
50803.0,STARLINK-3321,PAYLOAD,2024-05-10 03:50:31,15.08847789,0.0001271,53.2154,290.2659,73.3363,286.7769,0.00022369,3.275e-05,0.0,0 STARLINK-3321,1 50803U 22001A   24131.16008318  .00003275  00000-0  22369-3 0  9991,2 50803  53.2154 290.2659 0001271  73.3363 286.7769 15.08847789129483,6917.857,95.437,540.601,538.842,0.0
50803.0,STARLINK-3321,PAYLOAD,2024-05-10 18:08:59,15.08847737,0.0001274,53.2168,287.5903,75.412,284.7014,0.00014184,1.971e-05,0.0,0 STARLINK-3321,1 50803U 22001A   24131.75624228  .00001971  00000-0  14184-3 0  9997,2 50803  53.2168 287.5903 0001274  75.4120 284.7014 15.08847737130842,6917.857,95.437,540.603,538.84,0.0
50803.0,STARLINK-3321,PAYLOAD,2024-05-11 19:35:07,15.0887477,0.0001635,53.2155,282.8316,104.3596,255.7578,0.00048454,7.439e-05,0.0,0 STARLINK-3321,1 50803U 22001A   24132.81605736  .00007439  00000-0  48454-3 0  9990,2 50803  53.2155 282.8316 0001635 104.3596 255.7578 15.08874770131003,6917.774,95.435,540.77,538.508,0.0
50803.0,STARLINK-3321,PAYLOAD,2024-05-12 03:32:06,15.08768548,0.0001728,53.2174,281.3463,77.6387,282.4798,-0.0021501,-0.00034278,0.0,0 STARLINK-3321,1 50803U 22001A   24133.14729498 -.00034278  00000-0 -21501-2 0  9995,2 50803  53.2174 281.3463 0001728  77.6387 282.4798 15.08768548131055,6918.099,95.442,541.159,538.768,0.0
50803.0,STARLINK-3321,PAYLOAD,2024-05-12 13:04:28,15.08733866,0.0002551,53.2174,279.5604,95.1791,264.9493,-0.002002,-0.00031919,0.0,0 STARLINK-3321,1 50803U 22001A   24133.54476872 -.00031919  00000-0 -20020-2 0  9998,2 50803  53.2174 279.5604 0002551  95.1791 264.9493 15.08733866131119,6918.205,95.444,541.835,538.305,0.0
50803.0,STARLINK-3321,PAYLOAD,2024-05-12 14:39:49,15.08808642,0.000231,53.2182,279.2628,120.8422,239.2798,0.00035765,5.404e-05,0.0,0 STARLINK-3321,1 50803U 22001A   24133.61099250  .00005404  00000-0  35765-3 0  9998,2 50803  53.2182 279.2628 0002310 120.8422 239.2798 15.08808642129857,6917.976,95.44,541.439,538.243,0.0
50803.0,STARLINK-3321,PAYLOAD,2024-05-12 16:15:13,15.08790656,0.0001713,53.2163,278.966,94.8713,265.2475,0.0014411,0.00022691,0.0,0 STARLINK-3321,1 50803U 22001A   24133.67724335  .00022691  00000-0  14411-2 0  9994,2 50803  53.2163 278.9660 0001713  94.8713 265.2475 15.08790656131137,6918.031,95.441,541.081,538.711,0.0
50803.0,STARLINK-3321,PAYLOAD,2024-05-13 19:16:47,15.08870709,0.0001718,53.2152,273.9105,92.233,267.8859,0.0010077,0.00015799,0.0,0 STARLINK-3321,1 50803U 22001A   24134.80332472  .00015799  00000-0  10077-2 0  9992,2 50803  53.2152 273.9105 0001718  92.2330 267.8859 15.08870709131307,6917.787,95.436,540.84,538.463,0.0
50803.0,STARLINK-3321,PAYLOAD,2024-05-14 09:35:14,15.08886859,0.0001695,53.2148,271.2348,91.101,269.0176,0.00084449,0.00013195,0.0,0 STARLINK-3321,1 50803U 22001A   24135.39946850  .00013195  00000-0  84449-3 0  9991,2 50803  53.2148 271.2348 0001695  91.1010 269.0176 15.08886859130127,6917.737,95.435,540.775,538.43,0.0
50803.0,STARLINK-3321,PAYLOAD,2024-05-14 15:56:45,15.08896745,0.0001666,53.2148,270.0448,90.9037,269.2146,0.00096704,0.0001516,0.0,0 STARLINK-3321,1 50803U 22001A   24135.66441901  .00015160  00000-0  96704-3 0  9999,2 50803  53.2148 270.0448 0001666  90.9037 269.2146 15.08896745130167,6917.707,95.434,540.724,538.419,0.0
50803.0,STARLINK-3321,PAYLOAD,2024-05-15 01:29:03,15.08905955,6.35e-05,53.2167,268.2593,36.0759,324.0276,0.001099,0.00017277,0.0,0 STARLINK-3321,1 50803U 22001A   24136.06184424  .00017277  00000-0  10990-2 0  9991,2 50803  53.2167 268.2593 0000635  36.0759 324.0276 15.08905955131490,6917.679,95.433,539.983,539.105,0.0
50803.0,STARLINK-3321,PAYLOAD,2024-05-15 12:36:45,15.08874273,0.0001701,53.2136,266.1784,98.4846,261.6339,0.00023702,3.49e-05,0.0,0 STARLINK-3321,1 50803U 22001A   24136.52552335  .00003490  00000-0  23702-3 0  9990,2 50803  53.2136 266.1784 0001701  98.4846 261.6339 15.08874273131561,6917.776,95.435,540.817,538.464,0.0
50803.0,STARLINK-3321,PAYLOAD,2024-05-15 14:12:08,15.08873107,0.0001804,53.2173,265.8818,98.646,261.4737,0.0002828,4.22e-05,0.0,0 STARLINK-3321,1 50803U 22001A   24136.59176162  .00004220  00000-0  28280-3 0  9995,2 50803  53.2173 265.8818 0001804  98.6460 261.4737 15.08873107130300,6917.779,95.435,540.892,538.396,0.0
50803.0,STARLINK-3321,PAYLOAD,2024-05-15 15:47:31,15.08875814,0.0001654,53.2155,265.5846,90.1152,270.003,0.00048648,7.47e-05,0.0,0 STARLINK-3321,1 50803U 22001A   24136.65800148  .00007470  00000-0  48648-3 0  9990,2 50803  53.2155 265.5846 0001654  90.1152 270.0030 15.08875814130316,6917.771,95.435,540.78,538.492,0.0
50803.0,STARLINK-3321,PAYLOAD,2024-05-16 12:27:32,15.08850124,0.0001344,53.2159,261.7161,89.2553,270.8594,0.00080366,0.00012529,0.0,0 STARLINK-3321,1 50803U 22001A   24137.51912529  .00012529  00000-0  80366-3 0  9997,2 50803  53.2159 261.7161 0001344  89.2553 270.8594 15.08850124131713,6917.849,95.437,540.644,538.785,0.0
50803.0,STARLINK-3321,PAYLOAD,2024-05-17 01:10:37,15.08852242,0.0001558,53.2161,259.338,87.9713,272.1457,0.00070769,0.00010997,0.0,0 STARLINK-3321,1 50803U 22001A   24138.04904429  .00010997  00000-0  70769-3 0  9999,2 50803  53.2161 259.3380 0001558  87.9713 272.1457 15.08852242131796,6917.843,95.437,540.786,538.63,0.0
50803.0,STARLINK-3321,PAYLOAD,2024-05-17 12:18:19,15.08843084,0.0001105,53.2166,257.2612,98.1289,261.9828,0.00021541,3.142e-05,0.0,0 STARLINK-3321,1 50803U 22001A   24138.51272354  .00003142  00000-0  21541-3 0  9994,2 50803  53.2166 257.2612 0001105  98.1289 261.9828 15.08843084131866,6917.871,95.437,540.5,538.972,0.0
50803.0,STARLINK-3321,PAYLOAD,2024-05-17 17:04:28,15.08848475,0.0002034,53.2155,256.3654,93.2091,266.9134,0.00055024,8.482e-05,0.0,0 STARLINK-3321,1 50803U 22001A   24138.71144471  .00008482  00000-0  55024-3 0  9999,2 50803  53.2155 256.3654 0002034  93.2091 266.9134 15.08848475130626,6917.854,95.437,541.127,538.312,0.0
50803.0,STARLINK-3321,PAYLOAD,2024-05-18 01:01:24,15.08835156,0.0002398,53.216,254.8795,81.2595,278.8669,-0.00011709,-2.151e-05,0.0,0 STARLINK-3321,1 50803U 22001A   24139.04264874 -.00002151  00000-0 -11709-3 0  9997,2 50803  53.2160 254.8795 0002398  81.2595 278.8669 15.08835156131943,6917.895,95.438,541.419,538.101,0.0
50803.0,STARLINK-3321,PAYLOAD,2024-05-18 13:44:29,15.08839441,4.25e-05,53.2163,252.5002,72.4206,287.6833,0.00029288,4.377e-05,0.0,0 STARLINK-3321,1 50803U 22001A   24139.57256290  .00004377  00000-0  29288-3 0  9999,2 50803  53.2163 252.5002 0000425  72.4206 287.6833 15.08839441130752,6917.882,95.438,540.041,539.453,0.0
50803.0,STARLINK-3321,PAYLOAD,2024-05-18 16:55:15,15.08870432,0.0001059,53.2151,251.9066,78.2832,281.8279,0.0010263,0.00016097,0.0,0 STARLINK-3321,1 50803U 22001A   24139.70503632  .00016097  00000-0  10263-2 0  9993,2 50803  53.2151 251.9066 0001059  78.2832 281.8279 15.08870432132044,6917.787,95.436,540.385,538.92,0.0
50803.0,STARLINK-3321,PAYLOAD,2024-05-19 00:52:11,15.08830106,0.0001114,53.2159,250.4184,87.4129,272.699,-0.00018338,-3.204e-05,0.0,0 STARLINK-3321,1 50803U 22001A   24140.03624613 -.00003204  00000-0 -18338-3 0  9994,2 50803  53.2159 250.4184 0001114  87.4129 272.6990 15.08830106132097,6917.911,95.438,540.546,539.005,0.0
50803.0,STARLINK-3321,PAYLOAD,2024-05-19 13:35:18,15.08807816,0.0001307,53.2162,248.0387,98.9443,261.1697,-0.00033656,-5.635e-05,0.0,0 STARLINK-3321,1 50803U 22001A   24140.56618244 -.00005635  00000-0 -33656-3 0  9995,2 50803  53.2162 248.0387 0001307  98.9443 261.1697 15.08807816130906,6917.979,95.44,540.748,538.94,0.0
50803.0,STARLINK-3321,PAYLOAD,2024-05-19 16:46:04,15.08819364,0.0001112,53.2162,247.4442,118.1827,241.9278,9.3231e-05,1.195e-05,0.0,0 STARLINK-3321,1 50803U 22001A   24140.69866101  .00001195  00000-0  93231-4 0  9997,2 50803  53.2162 247.4442 0001112 118.1827 241.9278 15.08819364132191,6917.943,95.439,540.578,539.039,0.0
50803.0,STARLINK-3321,PAYLOAD,2024-05-20 11:50:41,15.08851981,0.0001649,53.2161,243.8767,125.1311,234.9836,0.0010805,0.00016956,0.0,0 STARLINK-3321,1 50803U 22001A   24141.49354160  .00016956  00000-0  10805-2 0  9998,2 50803  53.2161 243.8767 0001649 125.1311 234.9836 15.08851981132318,6917.844,95.437,540.85,538.568,0.0
